COSMOS 2426 (717)       
1 29671U 06062B   19094.92876050  .00000025  00000-0  10000-3 0  9990
2 29671  65.1572 282.7709 0017158 158.3795  24.0044  2.13102984 95534
COSMOS 2433 (720)       
1 32275U 07052A   19094.47924559 -.00000044  00000-0  10000-3 0  9994
2 32275  65.8232  43.6017 0004554 284.4038 249.5304  2.13104369 89031
COSMOS 2432 (719)       
1 32276U 07052B   19094.88962436 -.00000043  00000-0  10000-3 0  9995
2 32276  65.8349  43.6698 0013153 328.8199 111.1915  2.13103848 89046
COSMOS 2434 (721)       
1 32393U 07065A   19094.14090940  .00000025  00000-0  00000+0 0  9994
2 32393  64.7556 281.5293 0005487  89.4365  72.4275  2.13102938 87735
COSMOS 2436 (723)       
1 32395U 07065C   19095.19840234  .00000025  00000-0  10000-3 0  9996
2 32395  64.7659 281.5455 0016977   7.0002 298.0593  2.13104296 87683
COSMOS 2456 (730)       
1 36111U 09070A   19094.65221809  .00000051  00000-0  00000+0 0  9999
2 36111  64.1957 161.1388 0005047 309.8749  57.1739  2.13102753 72410
COSMOS 2457 (733)       
1 36112U 09070B   19095.09154223  .00000053  00000-0  00000+0 0  9996
2 36112  64.1780 161.0277 0005351 176.9355 292.5879  2.13101478 72429
COSMOS 2459 (731)       
1 36400U 10007A   19095.48218238 -.00000041  00000-0  10000-3 0  9991
2 36400  65.7294  42.5939 0028199 347.9276  91.9656  2.13102204 70780
COSMOS 2461 (735)       
1 36401U 10007B   19094.93035766 -.00000044  00000-0  10000-3 0  9997
2 36401  65.7234  42.5841 0006470  44.0223 243.0614  2.13102133 70765
COSMOS 2460 (732)       
1 36402U 10007C   19094.86009888 -.00000044  00000-0  10000-3 0  9996
2 36402  65.7139  42.5535 0002469 316.8026 316.4472  2.13101535 70767
COSMOS 2464 (736)       
1 37139U 10041C   19095.08573884  .00000023  00000-0  00000+0 0  9990
2 37139  64.3588 281.1569 0026383  15.9015  17.6222  2.13100618 66840
COSMOS 2474 (742)       
1 37829U 11055A   19094.95623147  .00000052  00000-0  00000+0 0  9997
2 37829  64.5176 161.9701 0009407 248.4374 208.6216  2.13101786 58419
COSMOS 2476 (744)       
1 37867U 11064A   19094.96091083  .00000052  00000-0  00000+0 0  9998
2 37867  64.4977 162.0236 0019328 241.4276 265.3408  2.13101855 57768
COSMOS 2477 (745)       
1 37868U 11064B   19095.00657491  .00000052  00000-0  00000+0 0  9996
2 37868  64.5068 162.0728 0017129 243.1211 117.4155  2.13101701 57724
COSMOS 2475 (743)       
1 37869U 11064C   19094.92380146  .00000052  00000-0  00000-0 0  9998
2 37869  64.5142 162.0725 0021544 265.6818 348.3571  2.13101822 57724
COSMOS 2485 (747)       
1 39155U 13019A   19094.94980047  .00000052  00000-0  00000+0 0  9997
2 39155  64.6668 162.1974 0019844 236.7831 306.2246  2.13101822 46235
COSMOS 2492 (754)       
1 39620U 14012A   19095.11055536 -.00000044  00000-0  10000-3 0  9991
2 39620  65.6028  42.3872 0016480 325.6160  15.7685  2.13103303 39186
COSMOS 2500 (755)       
1 40001U 14032A   19094.85050991 -.00000045  00000-0  00000-0 0  9995
2 40001  65.5438  42.3449 0005914 231.4389 132.0260  2.13102671 37404
COSMOS 2501 (702K)      
1 40315U 14075A   19095.55240400  .00000023  00000-0  00000+0 0  9998
2 40315  64.0780 282.2477 0014569 203.7732 136.8071  2.13098514 33815
COSMOS 2514 (751)       
1 41330U 16008A   19095.12792803 -.00000044  00000-0  00000+0 0  9990
2 41330  65.3454  42.3165 0009662 231.4284 166.3973  2.13103077 24575
COSMOS 2516 (753)       
1 41554U 16032A   19095.43868127  .00000023  00000-0  00000+0 0  9998
2 41554  64.3014 282.2002 0010146 213.2428 313.6281  2.13101594 22182
COSMOS 2522 (752)       
1 42939U 17055A   19095.12440836  .00000024  00000-0  00000+0 0  9992
2 42939  64.5322 282.2606 0004975 249.6164 262.6490  2.13101912 11937
COSMOS 2527 (756)       
1 43508U 18053A   19094.54411420  .00000050  00000-0  00000+0 0  9995
2 43508  64.8309 161.9644 0007743 237.3404 220.7653  2.13102562  6213
COSMOS 2529 (757)       
1 43687U 18086A   19093.33112763  .00000028  00000-0  00000-0 0  9999
2 43687  64.7469 282.3244 0008047 280.5746 251.6622  2.13101948  3200
